     2.11           N: GPS NAV DATA                         RINEX VERSION / TYPE
teqc  2019Feb25                         20221121 12:27:38UTCPGM / RUN BY / DATE
OSX ker:10.11.6|Core i5|gcc 4.3 -m64|OSX ker:10.10+|=+      COMMENT
    8.3819D-09  1.4901D-08 -5.9605D-08 -5.9605D-08          ION ALPHA
    8.3968D+04  1.6384D+04 -1.3107D+05 -6.5536D+04          ION BETA
    4.656612873077D-09 1.598721155460D-14    61440     1551 DELTA-UTC: A0,A1,T,W
                                                            END OF HEADER
17 09  9 26  0  0  0.0 8.791638538241D-05 3.069544618484D-12 0.000000000000D+00
    5.000000000000D+01-1.596875000000D+01 4.771984486594D-09-6.860673190348D-01
   -6.910413503647D-07 4.674148745835D-03 7.769092917442D-06 5.153733161926D+03
    5.184000000000D+05 7.823109626770D-08 2.726120694806D+00 7.264316082001D-08
    9.601009098167D-01 2.289062500000D+02-2.647027402722D+00-8.014262397626D-09
    2.214377952016D-10 1.000000000000D+00 1.550000000000D+03 0.000000000000D+00
    2.000000000000D+00 0.000000000000D+00-1.024454832077D-08 5.000000000000D+01
    5.112180000000D+05 4.000000000000D+00
32 09  9 26  0  0  0.0 1.896908506751D-04-7.162270776462D-12 0.000000000000D+00
    4.500000000000D+01 6.581250000000D+01 4.357681514926D-09-2.719094327067D+00
    3.445893526077D-06 1.327342144214D-02 6.916001439095D-06 5.153714962006D+03
    5.184000000000D+05 3.725290298462D-08-1.396357515667D+00 1.881271600723D-07
    9.620460539711D-01 2.438750000000D+02-1.112996152940D+00-7.744251150574D-09
   -1.696499237431D-10 1.000000000000D+00 1.550000000000D+03 0.000000000000D+00
    2.000000000000D+00 0.000000000000D+00-3.259629011154D-09 4.500000000000D+01
    5.112180000000D+05 4.000000000000D+00
11 09  9 26  0  0  0.0-2.133101224899D-05-1.705302565824D-12 0.000000000000D+00
    9.200000000000D+01 8.062500000000D+00 6.319191791131D-09 2.685051652825D+00
    3.874301910400D-07 9.908786742017D-03 7.569789886475D-06 5.153699758530D+03
    5.184000000000D+05-8.568167686462D-08-2.749653048738D+00-1.452863216400D-07
    8.893944817301D-01 1.955625000000D+02 7.307898321470D-01-8.618573283886D-09
   -8.536069847286D-11 1.000000000000D+00 1.550000000000D+03 0.000000000000D+00
    2.000000000000D+00 0.000000000000D+00-1.164153218269D-08 9.200000000000D+01
    5.112180000000D+05 4.000000000000D+00
14 09  9 26  0  0  0.0-4.595797508955D-05 5.115907697473D-12 0.000000000000D+00
    7.900000000000D+01 3.525000000000D+01 3.926234972018D-09-1.188412532095D+00
    1.758337020874D-06 4.952584160492D-03 5.025416612625D-06 5.153649986267D+03
    5.184000000000D+05 1.154839992523D-07-3.933427276177D-01 1.210719347000D-07
    9.879449075738D-01 2.990937500000D+02-2.151221519788D+00-7.889614348392D-09
   -1.492919328940D-10 1.000000000000D+00 1.550000000000D+03 0.000000000000D+00
    2.000000000000D+00 0.000000000000D+00-8.847564458847D-09 7.900000000000D+01
    5.112180000000D+05 4.000000000000D+00
 9 09  9 26  0  0  0.0 7.957220077515D-05 2.160049916711D-12 0.000000000000D+00
    8.400000000000D+01-5.168750000000D+01 3.887661936724D-09 1.924591785167D+00
   -3.051012754440D-06 2.067763614468D-02 4.269182682037D-06 5.153632097244D+03
    5.184000000000D+05 2.998858690262D-07 5.801324396790D-01-3.110617399216D-07
    9.779047047647D-01 3.037187500000D+02 1.514704701942D+00-7.796039022032D-09
   -1.107188976008D-11 1.000000000000D+00 1.550000000000D+03 0.000000000000D+00
    2.800000000000D+00 0.000000000000D+00-5.587935447693D-09 8.400000000000D+01
    5.112180000000D+05 4.000000000000D+00
 4 09  9 26  0  0  0.0-2.823909744620D-04-1.739408617141D-11 0.000000000000D+00
    2.700000000000D+01 2.571875000000D+01 5.256290374164D-09 1.069711324033D+00
    1.579523086548D-06 8.792101172730D-03 7.906928658485D-06 5.153803209305D+03
    5.184000000000D+05 2.793967723846D-08-2.525239022044D+00 1.080334186554D-07
    9.402013750012D-01 2.162812500000D+02 5.193957822106D-01-8.337490147073D-09
   -2.885834492304D-10 1.000000000000D+00 1.550000000000D+03 0.000000000000D+00
    2.000000000000D+00 0.000000000000D+00-6.053596735001D-09 2.700000000000D+01
    5.112180000000D+05 4.000000000000D+00
12 09  9 26  0  0  0.0-2.135005779564D-04 5.570655048359D-12 0.000000000000D+00
    8.500000000000D+01-6.521875000000D+01 4.164102022992D-09 2.863952618642D+00
   -3.427267074585D-06 3.073853440583D-03 7.824972271919D-06 5.153570087433D+03
    5.184000000000D+05 5.587935447693D-09 1.666148585502D+00 6.519258022308D-08
    9.678602638820D-01 2.286250000000D+02-5.886716592803D-01-7.809968173666D-09
    2.614394614315D-10 1.000000000000D+00 1.550000000000D+03 0.000000000000D+00
    2.000000000000D+00 0.000000000000D+00-1.164153218269D-08 8.500000000000D+01
    5.112180000000D+05 4.000000000000D+00
23 09  9 26  0  0  0.0 3.882036544383D-04-3.410605131648D-13 0.000000000000D+00
    5.400000000000D+01 2.753125000000D+01 4.288392914492D-09-1.842647754361D+00
    1.385807991028D-06 6.394544034265D-03 4.662200808525D-06 5.153771141052D+03
    5.184000000000D+05-3.166496753693D-08-4.279726098628D-01-5.587935447693D-08
    9.698563936574D-01 2.950312500000D+02 2.974162298232D+00-8.056407010261D-09
   -4.393040130612D-11 1.000000000000D+00 1.550000000000D+03 0.000000000000D+00
    2.000000000000D+00 0.000000000000D+00-2.002343535423D-08 5.400000000000D+01
    5.128920000000D+05 4.000000000000D+00
30 09  9 26  0  0  0.0 1.799114979804D-04 3.069544618484D-12 0.000000000000D+00
    9.700000000000D+01-5.550000000000D+01 4.629835708384D-09 3.503801634716D-01
   -3.084540367126D-06 1.191467745230D-02 7.541850209236D-06 5.153668088913D+03
    5.184000000000D+05-1.788139343262D-07 1.616418660337D+00-3.539025783539D-08
    9.529966563188D-01 2.324375000000D+02 1.457140560805D+00-8.242843347511D-09
    1.903650723265D-10 1.000000000000D+00 1.550000000000D+03 0.000000000000D+00
    2.800000000000D+00 0.000000000000D+00-7.916241884232D-09 9.700000000000D+01
    5.134920000000D+05 4.000000000000D+00
31 09  9 26  0  0  0.0-6.387056782842D-05 5.684341886081D-13 0.000000000000D+00
    1.000000000000D+02-4.784375000000D+01 3.987308944565D-09 2.642497634885D+00
   -2.313405275345D-06 7.052903645672D-03 5.181878805161D-06 5.153797084808D+03
    5.184000000000D+05 4.097819328308D-08 6.117317481456D-01 1.117587089539D-08
    9.743506828055D-01 2.858125000000D+02-1.141379651478D+00-7.793538917893D-09
   -9.643258823294D-12 1.000000000000D+00 1.550000000000D+03 0.000000000000D+00
    2.000000000000D+00 0.000000000000D+00-1.303851604462D-08 1.000000000000D+02
    5.144820000000D+05 4.000000000000D+00
13 09  9 26  0  0  0.0 3.050426021218D-04 4.547473508865D-13 0.000000000000D+00
    8.100000000000D+01 2.690625000000D+01 3.800158291846D-09-1.155629632201D+00
    1.378357410431D-06 3.996855462901D-03 4.783272743225D-06 5.153649208069D+03
    5.184000000000D+05-9.313225746155D-09-3.730884366309D-01 4.284083843231D-08
    9.945318644613D-01 3.047187500000D+02 1.660996473296D+00-7.883185509176D-09
   -1.035757429169D-10 1.000000000000D+00 1.550000000000D+03 0.000000000000D+00
    2.000000000000D+00 0.000000000000D+00-1.117587089539D-08 8.100000000000D+01
    5.165520000000D+05 4.000000000000D+00
